[{"OBJECT_NAME":"GEOSCAN 4 (RS92S4)","OBJECT_ID":"2025-155S","EPOCH":"2026-03-09T21:50:07.724832","MEAN_MOTION":15.30369837,"ECCENTRICITY":0.00070968,"INCLINATION":97.4465,"RA_OF_ASC_NODE":37.7626,"ARG_OF_PERICENTER":154.7045,"MEAN_ANOMALY":205.4544,"EPHEMERIS_TYPE":0,"CLASSIFICATION_TYPE":"U","NORAD_CAT_ID":64892,"ELEMENT_SET_NO":999,"REV_AT_EPOCH":6562,"BSTAR":0.00068609503,"MEAN_MOTION_DOT":0.00020121,"MEAN_MOTION_DDOT":0},{"OBJECT_NAME":"STARLINK-35703","OBJECT_ID":"2025-288M","EPOCH":"2026-03-09T21:45:33.553440","MEAN_MOTION":15.27576944,"ECCENTRICITY":9.132e-5,"INCLINATION":43.0021,"RA_OF_ASC_NODE":21.9578,"ARG_OF_PERICENTER":252.3187,"MEAN_ANOMALY":107.7565,"EPHEMERIS_TYPE":0,"CLASSIFICATION_TYPE":"U","NORAD_CAT_ID":66970,"ELEMENT_SET_NO":999,"REV_AT_EPOCH":1532,"BSTAR":0.0011982565,"MEAN_MOTION_DOT":0.00032855,"MEAN_MOTION_DDOT":0}]
